{
"type": "FeatureCollection",
"name": "demo_cdmx",
"crs": { "type": "name", "properties": { "name": "urn:ogc:def:crs:OGC:1.3:CRS84" } },
"features": [
{ "type": "Feature", "properties": { "Distrito": "002", "Descripcio": "Buenavista-Reforma", "Viaj_5a10": 39, "lugar": 99, "lat": 19.4427770018, "long": -99.158318813299999, "dest_y": 19.375757, "dest_x": -99.237133, "distancia": 11111.6216083, "lugar_dist": 99 }, "geometry": { "type": "Point", "coordinates": [ -99.158318813283657, 19.442777001801336 ] } },
{ "type": "Feature", "properties": { "Distrito": "003", "Descripcio": "Tlatelolco", "Viaj_5a10": 169, "lugar": 40, "lat": 19.452623165399999, "long": -99.135248082399997, "dest_y": 19.375757, "dest_x": -99.237133, "distancia": 13666.055440399999, "lugar_dist": 99 }, "geometry": { "type": "Point", "coordinates": [ -99.135248082435496, 19.452623165408493 ] } },
{ "type": "Feature", "properties": { "Distrito": "006", "Descripcio": "Balbuena", "Viaj_5a10": 130, "lugar": 50, "lat": 19.412876421, "long": -99.119467773799997, "dest_y": 19.375757, "dest_x": -99.237133, "distancia": 13019.7049806, "lugar_dist": 99 }, "geometry": { "type": "Point", "coordinates": [ -99.119467773795023, 19.412876421010775 ] } },
{ "type": "Feature", "properties": { "Distrito": "007", "Descripcio": "Obrera", "Viaj_5a10": 256, "lugar": 23, "lat": 19.4144917305, "long": -99.144798691600002, "dest_y": 19.375757, "dest_x": -99.237133, "distancia": 10600.2327236, "lugar_dist": 99 }, "geometry": { "type": "Point", "coordinates": [ -99.144798691636083, 19.414491730518666 ] } },
{ "type": "Feature", "properties": { "Distrito": "008", "Descripcio": "Condesa", "Viaj_5a10": 556, "lugar": 10, "lat": 19.411432332699999, "long": -99.168319536799999, "dest_y": 19.375757, "dest_x": -99.237133, "distancia": 8233.5047821700009, "lugar_dist": 99 }, "geometry": { "type": "Point", "coordinates": [ -99.168319536811936, 19.41143233269835 ] } },
{ "type": "Feature", "properties": { "Distrito": "009", "Descripcio": "Nápoles", "Viaj_5a10": 105, "lugar": 99, "lat": 19.393355174100002, "long": -99.172394375699994, "dest_y": 19.375757, "dest_x": -99.237133, "distancia": 7071.3719197, "lugar_dist": 99 }, "geometry": { "type": "Point", "coordinates": [ -99.172394375663444, 19.393355174077158 ] } },
{ "type": "Feature", "properties": { "Distrito": "010", "Descripcio": "Vertiz Narvarte", "Viaj_5a10": 158, "lugar": 41, "lat": 19.394045992300001, "long": -99.146856859300001, "dest_y": 19.375757, "dest_x": -99.237133, "distancia": 9693.1529816500006, "lugar_dist": 99 }, "geometry": { "type": "Point", "coordinates": [ -99.14685685932848, 19.394045992259507 ] } },
{ "type": "Feature", "properties": { "Distrito": "011", "Descripcio": "Reforma Iztaccíhuatl", "Viaj_5a10": 29, "lugar": 99, "lat": 19.391599877400001, "long": -99.130424256500007, "dest_y": 19.375757, "dest_x": -99.237133, "distancia": 11341.450019600001, "lugar_dist": 99 }, "geometry": { "type": "Point", "coordinates": [ -99.130424256461566, 19.39159987743891 ] } },
{ "type": "Feature", "properties": { "Distrito": "012", "Descripcio": "Palacio de los Deportes", "Viaj_5a10": 130, "lugar": 99, "lat": 19.3946791547, "long": -99.110700969700005, "dest_y": 19.375757, "dest_x": -99.237133, "distancia": 13440.1867938, "lugar_dist": 99 }, "geometry": { "type": "Point", "coordinates": [ -99.110700969737977, 19.394679154723626 ] } },
{ "type": "Feature", "properties": { "Distrito": "013", "Descripcio": "San Andrés Tetepilco", "Viaj_5a10": 301, "lugar": 18, "lat": 19.372187247500001, "long": -99.125742929699996, "dest_y": 19.375757, "dest_x": -99.237133, "distancia": 11704.0749003, "lugar_dist": 99 }, "geometry": { "type": "Point", "coordinates": [ -99.125742929693132, 19.372187247502698 ] } },
{ "type": "Feature", "properties": { "Distrito": "014", "Descripcio": "Portales", "Viaj_5a10": 196, "lugar": 32, "lat": 19.369916014299999, "long": -99.153518139100001, "dest_y": 19.375757, "dest_x": -99.237133, "distancia": 8804.4703279400001, "lugar_dist": 99 }, "geometry": { "type": "Point", "coordinates": [ -99.15351813914701, 19.369916014319966 ] } },
{ "type": "Feature", "properties": { "Distrito": "015", "Descripcio": "Del Valle", "Viaj_5a10": 757, "lugar": 7, "lat": 19.375592187300001, "long": -99.175887916500002, "dest_y": 19.375757, "dest_x": -99.237133, "distancia": 6431.4980625600001, "lugar_dist": 99 }, "geometry": { "type": "Point", "coordinates": [ -99.175887916468497, 19.375592187270463 ] } },
{ "type": "Feature", "properties": { "Distrito": "016", "Descripcio": "Chapultepec-Polanco", "Viaj_5a10": 702, "lugar": 8, "lat": 19.4302331614, "long": -99.192719076800003, "dest_y": 19.375757, "dest_x": -99.237133, "distancia": 7621.1582608799999, "lugar_dist": 99 }, "geometry": { "type": "Point", "coordinates": [ -99.19271907676476, 19.430233161356664 ] } },
{ "type": "Feature", "properties": { "Distrito": "017", "Descripcio": "Panteones", "Viaj_5a10": 138, "lugar": 46, "lat": 19.461286572500001, "long": -99.198694697999997, "dest_y": 19.375757, "dest_x": -99.237133, "distancia": 10288.5794059, "lugar_dist": 99 }, "geometry": { "type": "Point", "coordinates": [ -99.198694698019267, 19.461286572533055 ] } },
{ "type": "Feature", "properties": { "Distrito": "018", "Descripcio": "Tezozómoc", "Viaj_5a10": 184, "lugar": 34, "lat": 19.486519030299998, "long": -99.207524331299993, "dest_y": 19.375757, "dest_x": -99.237133, "distancia": 12644.2180998, "lugar_dist": 99 }, "geometry": { "type": "Point", "coordinates": [ -99.207524331335449, 19.486519030293493 ] } },
{ "type": "Feature", "properties": { "Distrito": "019", "Descripcio": "El Rosario", "Viaj_5a10": 315, "lugar": 16, "lat": 19.500851948099999, "long": -99.190891722700002, "dest_y": 19.375757, "dest_x": -99.237133, "distancia": 14668.6375338, "lugar_dist": 46 }, "geometry": { "type": "Point", "coordinates": [ -99.190891722658677, 19.500851948057999 ] } },
{ "type": "Feature", "properties": { "Distrito": "020", "Descripcio": "Industrial Vallejo", "Viaj_5a10": 270, "lugar": 21, "lat": 19.483206221900002, "long": -99.170175917500003, "dest_y": 19.375757, "dest_x": -99.237133, "distancia": 13811.9618383, "lugar_dist": 50 }, "geometry": { "type": "Point", "coordinates": [ -99.170175917453975, 19.483206221853525 ] } },
{ "type": "Feature", "properties": { "Distrito": "021", "Descripcio": "La Raza", "Viaj_5a10": 295, "lugar": 19, "lat": 19.458407726899999, "long": -99.168296785199999, "dest_y": 19.375757, "dest_x": -99.237133, "distancia": 11656.262204299999, "lugar_dist": 99 }, "geometry": { "type": "Point", "coordinates": [ -99.168296785222424, 19.458407726944586 ] } },
{ "type": "Feature", "properties": { "Distrito": "026", "Descripcio": "Instituto Politécnico, Terminal de Autobuses del Norte", "Viaj_5a10": 463, "lugar": 11, "lat": 19.490054816699999, "long": -99.139012322799999, "dest_y": 19.375757, "dest_x": -99.237133, "distancia": 16311.1367983, "lugar_dist": 43 }, "geometry": { "type": "Point", "coordinates": [ -99.139012322782307, 19.490054816679919 ] } },
{ "type": "Feature", "properties": { "Distrito": "029", "Descripcio": "Nueva Atzacoalco", "Viaj_5a10": 187, "lugar": 33, "lat": 19.493228882299999, "long": -99.092127312599999, "dest_y": 19.375757, "dest_x": -99.237133, "distancia": 20016.739514699999, "lugar_dist": 35 }, "geometry": { "type": "Point", "coordinates": [ -99.092127312564585, 19.493228882310632 ] } },
{ "type": "Feature", "properties": { "Distrito": "031", "Descripcio": "Deportivo los Galeana", "Viaj_5a10": 178, "lugar": 37, "lat": 19.4729894896, "long": -99.076680354499999, "dest_y": 19.375757, "dest_x": -99.237133, "distancia": 19987.303643300002, "lugar_dist": 36 }, "geometry": { "type": "Point", "coordinates": [ -99.076680354548714, 19.472989489608509 ] } },
{ "type": "Feature", "properties": { "Distrito": "033", "Descripcio": "San Juan de Aragón", "Viaj_5a10": 138, "lugar": 47, "lat": 19.4547908095, "long": -99.076824682400002, "dest_y": 19.375757, "dest_x": -99.237133, "distancia": 18966.721686699999, "lugar_dist": 39 }, "geometry": { "type": "Point", "coordinates": [ -99.076824682423251, 19.454790809453296 ] } },
{ "type": "Feature", "properties": { "Distrito": "038", "Descripcio": "Central de Abastos", "Viaj_5a10": 63, "lugar": 99, "lat": 19.3800212029, "long": -99.08537723000001, "dest_y": 19.375757, "dest_x": -99.237133, "distancia": 15942.921165100001, "lugar_dist": 45 }, "geometry": { "type": "Point", "coordinates": [ -99.085377229988694, 19.380021202910907 ] } },
{ "type": "Feature", "properties": { "Distrito": "039", "Descripcio": "UAM Iztapalapa", "Viaj_5a10": 95, "lugar": 99, "lat": 19.3613035391, "long": -99.069602882599995, "dest_y": 19.375757, "dest_x": -99.237133, "distancia": 17665.949946100001, "lugar_dist": 41 }, "geometry": { "type": "Point", "coordinates": [ -99.069602882553852, 19.361303539076623 ] } },
{ "type": "Feature", "properties": { "Distrito": "040", "Descripcio": "Escuadrón 201", "Viaj_5a10": 148, "lugar": 43, "lat": 19.362847821199999, "long": -99.106075382300006, "dest_y": 19.375757, "dest_x": -99.237133, "distancia": 13837.070197200001, "lugar_dist": 49 }, "geometry": { "type": "Point", "coordinates": [ -99.106075382255497, 19.362847821204074 ] } },
{ "type": "Feature", "properties": { "Distrito": "042", "Descripcio": "Lomas Estrella", "Viaj_5a10": 248, "lugar": 24, "lat": 19.330021412800001, "long": -99.080733831499998, "dest_y": 19.375757, "dest_x": -99.237133, "distancia": 17187.966038300001, "lugar_dist": 42 }, "geometry": { "type": "Point", "coordinates": [ -99.080733831488359, 19.330021412839653 ] } },
{ "type": "Feature", "properties": { "Distrito": "043", "Descripcio": "Canal Nacional", "Viaj_5a10": 130, "lugar": 99, "lat": 19.3089703357, "long": -99.100422503600001, "dest_y": 19.375757, "dest_x": -99.237133, "distancia": 16149.256792100001, "lugar_dist": 44 }, "geometry": { "type": "Point", "coordinates": [ -99.100422503587751, 19.308970335744597 ] } },
{ "type": "Feature", "properties": { "Distrito": "044", "Descripcio": "Coapa", "Viaj_5a10": 248, "lugar": 25, "lat": 19.2979043775, "long": -99.130943983899996, "dest_y": 19.375757, "dest_x": -99.237133, "distancia": 14093.160311400001, "lugar_dist": 48 }, "geometry": { "type": "Point", "coordinates": [ -99.130943983855502, 19.297904377514392 ] } },
{ "type": "Feature", "properties": { "Distrito": "047", "Descripcio": "Viveros", "Viaj_5a10": 203, "lugar": 31, "lat": 19.348740271899999, "long": -99.170200727199997, "dest_y": 19.375757, "dest_x": -99.237133, "distancia": 7638.5605532999998, "lugar_dist": 99 }, "geometry": { "type": "Point", "coordinates": [ -99.17020072723173, 19.348740271888545 ] } },
{ "type": "Feature", "properties": { "Distrito": "048", "Descripcio": "Pedregal de Santo Domingo", "Viaj_5a10": 216, "lugar": 29, "lat": 19.329753016200002, "long": -99.168985463200002, "dest_y": 19.375757, "dest_x": -99.237133, "distancia": 8782.9340691500001, "lugar_dist": 99 }, "geometry": { "type": "Point", "coordinates": [ -99.168985463172277, 19.329753016158605 ] } },
{ "type": "Feature", "properties": { "Distrito": "049", "Descripcio": "Xotepingo", "Viaj_5a10": 374, "lugar": 13, "lat": 19.319266346700001, "long": -99.152316401799993, "dest_y": 19.375757, "dest_x": -99.237133, "distancia": 10882.580330500001, "lugar_dist": 99 }, "geometry": { "type": "Point", "coordinates": [ -99.152316401756011, 19.319266346653581 ] } },
{ "type": "Feature", "properties": { "Distrito": "050", "Descripcio": "Estadio Azteca", "Viaj_5a10": 123, "lugar": 99, "lat": 19.303007749599999, "long": -99.160846434299998, "dest_y": 19.375757, "dest_x": -99.237133, "distancia": 11358.0481819, "lugar_dist": 99 }, "geometry": { "type": "Point", "coordinates": [ -99.160846434271335, 19.303007749600024 ] } },
{ "type": "Feature", "properties": { "Distrito": "051", "Descripcio": "Ciudad Universitaria", "Viaj_5a10": 110, "lugar": 99, "lat": 19.322224664, "long": -99.195223056499998, "dest_y": 19.375757, "dest_x": -99.237133, "distancia": 7379.9310625999997, "lugar_dist": 99 }, "geometry": { "type": "Point", "coordinates": [ -99.195223056502812, 19.322224663967862 ] } },
{ "type": "Feature", "properties": { "Distrito": "052", "Descripcio": "Olivar de los Padres-San Jerónimo", "Viaj_5a10": 401, "lugar": 12, "lat": 19.3314332303, "long": -99.226898128900004, "dest_y": 19.375757, "dest_x": -99.237133, "distancia": 5020.9668595100002, "lugar_dist": 99 }, "geometry": { "type": "Point", "coordinates": [ -99.226898128851701, 19.331433230288656 ] } },
{ "type": "Feature", "properties": { "Distrito": "053", "Descripcio": "Las Águilas", "Viaj_5a10": 921, "lugar": 6, "lat": 19.3562221388, "long": -99.218265332300007, "dest_y": 19.375757, "dest_x": -99.237133, "distancia": 2932.34150318, "lugar_dist": 99 }, "geometry": { "type": "Point", "coordinates": [ -99.218265332297918, 19.356222138752337 ] } },
{ "type": "Feature", "properties": { "Distrito": "054", "Descripcio": "Santa Lucia", "Viaj_5a10": 3049, "lugar": 1, "lat": 19.36263117, "long": -99.239535123500005, "dest_y": 19.375757, "dest_x": -99.237133, "distancia": 1474.1580614699999, "lugar_dist": 99 }, "geometry": { "type": "Point", "coordinates": [ -99.239535123512269, 19.362631169986496 ] } },
{ "type": "Feature", "properties": { "Distrito": "055", "Descripcio": "Molinos", "Viaj_5a10": 2838, "lugar": 2, "lat": 19.3818896545, "long": -99.200989017200001, "dest_y": 19.375757, "dest_x": -99.237133, "distancia": 3855.6699977200001, "lugar_dist": 99 }, "geometry": { "type": "Point", "coordinates": [ -99.2009890171596, 19.381889654461737 ] } },
{ "type": "Feature", "properties": { "Distrito": "057", "Descripcio": "Observatorio, Terminal de Autobuses Observatorio", "Viaj_5a10": 2558, "lugar": 3, "lat": 19.3938396884, "long": -99.216157166100004, "dest_y": 19.375757, "dest_x": -99.237133, "distancia": 2975.7447522299999, "lugar_dist": 99 }, "geometry": { "type": "Point", "coordinates": [ -99.216157166139951, 19.393839688440767 ] } },
{ "type": "Feature", "properties": { "Distrito": "058", "Descripcio": "Las Lomas", "Viaj_5a10": 1287, "lugar": 5, "lat": 19.405828443200001, "long": -99.232616047600004, "dest_y": 19.375757, "dest_x": -99.237133, "distancia": 3361.13745935, "lugar_dist": 99 }, "geometry": { "type": "Point", "coordinates": [ -99.232616047631652, 19.405828443231119 ] } },
{ "type": "Feature", "properties": { "Distrito": "059", "Descripcio": "Cuajimalpa", "Viaj_5a10": 1699, "lugar": 4, "lat": 19.360522234499999, "long": -99.293090597399996, "dest_y": 19.375757, "dest_x": -99.237133, "distancia": 6113.5315303400002, "lugar_dist": 99 }, "geometry": { "type": "Point", "coordinates": [ -99.293090597357761, 19.360522234534294 ] } },
{ "type": "Feature", "properties": { "Distrito": "060", "Descripcio": "San Lorenzo Acopilco", "Viaj_5a10": 177, "lugar": 39, "lat": 19.299387125900001, "long": -99.328186590900003, "dest_y": 19.375757, "dest_x": -99.237133, "distancia": 12762.5218811, "lugar_dist": 99 }, "geometry": { "type": "Point", "coordinates": [ -99.328186590925, 19.299387125908577 ] } },
{ "type": "Feature", "properties": { "Distrito": "061", "Descripcio": "San Bartolo-San Mateo", "Viaj_5a10": 577, "lugar": 9, "lat": 19.305524354100001, "long": -99.287744582000002, "dest_y": 19.375757, "dest_x": -99.237133, "distancia": 9415.6813894099996, "lugar_dist": 99 }, "geometry": { "type": "Point", "coordinates": [ -99.287744582007051, 19.305524354056232 ] } },
{ "type": "Feature", "properties": { "Distrito": "062", "Descripcio": "Cerro del Judío", "Viaj_5a10": 120, "lugar": 99, "lat": 19.261204922400001, "long": -99.275224512400001, "dest_y": 19.375757, "dest_x": -99.237133, "distancia": 13292.09431, "lugar_dist": 99 }, "geometry": { "type": "Point", "coordinates": [ -99.275224512412578, 19.261204922389023 ] } },
{ "type": "Feature", "properties": { "Distrito": "063", "Descripcio": "La Magdalena Contreras", "Viaj_5a10": 91, "lugar": 99, "lat": 19.297028346400001, "long": -99.228895432900003, "dest_y": 19.375757, "dest_x": -99.237133, "distancia": 8754.3992765900002, "lugar_dist": 99 }, "geometry": { "type": "Point", "coordinates": [ -99.228895432883661, 19.297028346414592 ] } },
{ "type": "Feature", "properties": { "Distrito": "065", "Descripcio": "Padierna", "Viaj_5a10": 353, "lugar": 15, "lat": 19.257972344500001, "long": -99.219893991700005, "dest_y": 19.375757, "dest_x": -99.237133, "distancia": 13158.3686659, "lugar_dist": 99 }, "geometry": { "type": "Point", "coordinates": [ -99.219893991709313, 19.257972344476542 ] } },
{ "type": "Feature", "properties": { "Distrito": "066", "Descripcio": "San Pedro Mártir", "Viaj_5a10": 64, "lugar": 99, "lat": 19.2578017851, "long": -99.179986940899994, "dest_y": 19.375757, "dest_x": -99.237133, "distancia": 14366.389806, "lugar_dist": 47 }, "geometry": { "type": "Point", "coordinates": [ -99.17998694091068, 19.257801785093694 ] } },
{ "type": "Feature", "properties": { "Distrito": "067", "Descripcio": "Pueblo del Ajusco", "Viaj_5a10": 132, "lugar": 49, "lat": 19.176006188300001, "long": -99.218008894899995, "dest_y": 19.375757, "dest_x": -99.237133, "distancia": 22193.963911399998, "lugar_dist": 30 }, "geometry": { "type": "Point", "coordinates": [ -99.218008894907513, 19.176006188316332 ] } },
{ "type": "Feature", "properties": { "Distrito": "076", "Descripcio": "Santa Catarina", "Viaj_5a10": 264, "lugar": 22, "lat": 19.307305748299999, "long": -99.004188622100003, "dest_y": 19.375757, "dest_x": -99.237133, "distancia": 25612.549379799999, "lugar_dist": 21 }, "geometry": { "type": "Point", "coordinates": [ -99.004188622089131, 19.307305748340138 ] } },
{ "type": "Feature", "properties": { "Distrito": "078", "Descripcio": "Desarrollo Urbano Quetzalcóatl", "Viaj_5a10": 94, "lugar": 99, "lat": 19.333075221600001, "long": -99.047028387200001, "dest_y": 19.375757, "dest_x": -99.237133, "distancia": 20516.792488399999, "lugar_dist": 34 }, "geometry": { "type": "Point", "coordinates": [ -99.047028387180433, 19.333075221559689 ] } },
{ "type": "Feature", "properties": { "Distrito": "079", "Descripcio": "Buenavista Iztapalapa", "Viaj_5a10": 111, "lugar": 99, "lat": 19.3311797623, "long": -99.027892039700006, "dest_y": 19.375757, "dest_x": -99.237133, "distancia": 22522.502439100001, "lugar_dist": 27 }, "geometry": { "type": "Point", "coordinates": [ -99.027892039744188, 19.331179762321575 ] } },
{ "type": "Feature", "properties": { "Distrito": "081", "Descripcio": "San Miguel Teotongo", "Viaj_5a10": 225, "lugar": 27, "lat": 19.3346711015, "long": -98.982007009300006, "dest_y": 19.375757, "dest_x": -99.237133, "distancia": 27177.4980894, "lugar_dist": 19 }, "geometry": { "type": "Point", "coordinates": [ -98.982007009275037, 19.334671101450883 ] } },
{ "type": "Feature", "properties": { "Distrito": "082", "Descripcio": "Santa Martha Acatitla", "Viaj_5a10": 82, "lugar": 99, "lat": 19.3781517824, "long": -99.018411163500005, "dest_y": 19.375757, "dest_x": -99.237133, "distancia": 22969.7070934, "lugar_dist": 25 }, "geometry": { "type": "Point", "coordinates": [ -99.018411163520355, 19.378151782440124 ] } },
{ "type": "Feature", "properties": { "Distrito": "085", "Descripcio": "Ejército Constitucionalista", "Viaj_5a10": 359, "lugar": 14, "lat": 19.379848063400001, "long": -99.050125860600005, "dest_y": 19.375757, "dest_x": -99.237133, "distancia": 19642.913656199999, "lugar_dist": 37 }, "geometry": { "type": "Point", "coordinates": [ -99.050125860582668, 19.379848063426905 ] } },
{ "type": "Feature", "properties": { "Distrito": "101", "Descripcio": "CC Interlomas-Lomas de Tecamachalco", "Viaj_5a10": 204, "lugar": 30, "lat": 19.40619223, "long": -99.263649379200004, "dest_y": 19.375757, "dest_x": -99.237133, "distancia": 4369.6777145899996, "lugar_dist": 99 }, "geometry": { "type": "Point", "coordinates": [ -99.263649379244114, 19.406192230042468 ] } },
{ "type": "Feature", "properties": { "Distrito": "106", "Descripcio": "Naucalpan de Juárez -Centro y Lomas", "Viaj_5a10": 117, "lugar": 99, "lat": 19.4671762523, "long": -99.253783353599999, "dest_y": 19.375757, "dest_x": -99.237133, "distancia": 10265.8009432, "lugar_dist": 99 }, "geometry": { "type": "Point", "coordinates": [ -99.253783353551583, 19.467176252320375 ] } },
{ "type": "Feature", "properties": { "Distrito": "109", "Descripcio": "Cd Satélite Poniente", "Viaj_5a10": 71, "lugar": 99, "lat": 19.499802733500001, "long": -99.248716939000005, "dest_y": 19.375757, "dest_x": -99.237133, "distancia": 13779.909141800001, "lugar_dist": 99 }, "geometry": { "type": "Point", "coordinates": [ -99.248716938950849, 19.499802733498136 ] } },
{ "type": "Feature", "properties": { "Distrito": "111", "Descripcio": "Condados de Atizapán-México Nuevo", "Viaj_5a10": 94, "lugar": 99, "lat": 19.565764194900002, "long": -99.306268354899998, "dest_y": 19.375757, "dest_x": -99.237133, "distancia": 22241.967358400001, "lugar_dist": 29 }, "geometry": { "type": "Point", "coordinates": [ -99.306268354872657, 19.565764194920426 ] } },
{ "type": "Feature", "properties": { "Distrito": "112", "Descripcio": "Periférico Barrientos-Mundo E", "Viaj_5a10": 126, "lugar": 99, "lat": 19.5506936618, "long": -99.220585391599997, "dest_y": 19.375757, "dest_x": -99.237133, "distancia": 19435.2281769, "lugar_dist": 38 }, "geometry": { "type": "Point", "coordinates": [ -99.220585391602924, 19.550693661830191 ] } },
{ "type": "Feature", "properties": { "Distrito": "114", "Descripcio": "Zona Industrial Tabla Honda y San Pablo Xalpa", "Viaj_5a10": 156, "lugar": 42, "lat": 19.532867443600001, "long": -99.172532332000003, "dest_y": 19.375757, "dest_x": -99.237133, "distancia": 18660.401217, "lugar_dist": 40 }, "geometry": { "type": "Point", "coordinates": [ -99.172532332031096, 19.532867443557254 ] } },
{ "type": "Feature", "properties": { "Distrito": "117", "Descripcio": "U.H. Adolfo López Mateos-Central de Abastos Atizapán", "Viaj_5a10": 178, "lugar": 38, "lat": 19.581639181, "long": -99.252220836000006, "dest_y": 19.375757, "dest_x": -99.237133, "distancia": 22836.744838099999, "lugar_dist": 26 }, "geometry": { "type": "Point", "coordinates": [ -99.252220835964522, 19.581639181030244 ] } },
{ "type": "Feature", "properties": { "Distrito": "118", "Descripcio": "Emiliano Zapata-Lomas de San Miguel", "Viaj_5a10": 105, "lugar": 99, "lat": 19.599969878300001, "long": -99.2463003692, "dest_y": 19.375757, "dest_x": -99.237133, "distancia": 24828.823413599999, "lugar_dist": 23 }, "geometry": { "type": "Point", "coordinates": [ -99.246300369162356, 19.599969878278731 ] } },
{ "type": "Feature", "properties": { "Distrito": "120", "Descripcio": "Villa Nicolás Romero", "Viaj_5a10": 106, "lugar": 99, "lat": 19.601427714900002, "long": -99.299817103300001, "dest_y": 19.375757, "dest_x": -99.237133, "distancia": 25823.417909, "lugar_dist": 20 }, "geometry": { "type": "Point", "coordinates": [ -99.299817103312989, 19.601427714949732 ] } },
{ "type": "Feature", "properties": { "Distrito": "126", "Descripcio": "Centro Urbano-CC Cuautitlán Izcalli", "Viaj_5a10": 144, "lugar": 44, "lat": 19.636942390800002, "long": -99.215623807300005, "dest_y": 19.375757, "dest_x": -99.237133, "distancia": 28989.375062, "lugar_dist": 16 }, "geometry": { "type": "Point", "coordinates": [ -99.215623807328782, 19.636942390773669 ] } },
{ "type": "Feature", "properties": { "Distrito": "128", "Descripcio": "La Quebrada-Parques Industriales", "Viaj_5a10": 86, "lugar": 99, "lat": 19.678667993400001, "long": -99.189651813500006, "dest_y": 19.375757, "dest_x": -99.237133, "distancia": 33886.718535, "lugar_dist": 9 }, "geometry": { "type": "Point", "coordinates": [ -99.189651813489306, 19.678667993365657 ] } },
{ "type": "Feature", "properties": { "Distrito": "136", "Descripcio": "Tultepec - cabecera-", "Viaj_5a10": 80, "lugar": 99, "lat": 19.688844762799999, "long": -99.125452623699999, "dest_y": 19.375757, "dest_x": -99.237133, "distancia": 36572.227804499998, "lugar_dist": 7 }, "geometry": { "type": "Point", "coordinates": [ -99.125452623676281, 19.688844762769616 ] } },
{ "type": "Feature", "properties": { "Distrito": "139", "Descripcio": "TAD San Juan Ixhuatepec", "Viaj_5a10": 63, "lugar": 99, "lat": 19.525372595699999, "long": -99.103427958500006, "dest_y": 19.375757, "dest_x": -99.237133, "distancia": 21703.5367166, "lugar_dist": 32 }, "geometry": { "type": "Point", "coordinates": [ -99.103427958506231, 19.525372595731913 ] } },
{ "type": "Feature", "properties": { "Distrito": "140", "Descripcio": "Lázaro Cárdenas-Lomas de Tepeolulco", "Viaj_5a10": 97, "lugar": 99, "lat": 19.5397347599, "long": -99.118990692599994, "dest_y": 19.375757, "dest_x": -99.237133, "distancia": 21977.156891899998, "lugar_dist": 31 }, "geometry": { "type": "Point", "coordinates": [ -99.118990692612556, 19.539734759899059 ] } },
{ "type": "Feature", "properties": { "Distrito": "146", "Descripcio": "Guadalupe Victoria-Recursos Hidráulicos", "Viaj_5a10": 49, "lugar": 99, "lat": 19.629342285700002, "long": -99.059114361300004, "dest_y": 19.375757, "dest_x": -99.237133, "distancia": 33709.109620499999, "lugar_dist": 10 }, "geometry": { "type": "Point", "coordinates": [ -99.059114361311373, 19.629342285650356 ] } },
{ "type": "Feature", "properties": { "Distrito": "147", "Descripcio": "San Cristóbal Ecatepec", "Viaj_5a10": 295, "lugar": 20, "lat": 19.603863179699999, "long": -99.059737581999997, "dest_y": 19.375757, "dest_x": -99.237133, "distancia": 31363.067563299999, "lugar_dist": 14 }, "geometry": { "type": "Point", "coordinates": [ -99.059737581955332, 19.603863179689629 ] } },
{ "type": "Feature", "properties": { "Distrito": "148", "Descripcio": "La Presa-Tulpetlac", "Viaj_5a10": 183, "lugar": 35, "lat": 19.5692032135, "long": -99.062584889799993, "dest_y": 19.375757, "dest_x": -99.237133, "distancia": 28174.013437099999, "lugar_dist": 18 }, "geometry": { "type": "Point", "coordinates": [ -99.062584889791722, 19.569203213485199 ] } },
{ "type": "Feature", "properties": { "Distrito": "152", "Descripcio": "Valle de Aragón", "Viaj_5a10": 143, "lugar": 45, "lat": 19.484946640299999, "long": -99.057146600300001, "dest_y": 19.375757, "dest_x": -99.237133, "distancia": 22427.148311299999, "lugar_dist": 28 }, "geometry": { "type": "Point", "coordinates": [ -99.057146600301323, 19.48494664031535 ] } },
{ "type": "Feature", "properties": { "Distrito": "155", "Descripcio": "Valle de Aragón 3ra Secc", "Viaj_5a10": 99, "lugar": 99, "lat": 19.508732080800002, "long": -99.046313715500006, "dest_y": 19.375757, "dest_x": -99.237133, "distancia": 24853.8077276, "lugar_dist": 22 }, "geometry": { "type": "Point", "coordinates": [ -99.046313715510323, 19.508732080831692 ] } },
{ "type": "Feature", "properties": { "Distrito": "161", "Descripcio": "Jardines de Morelos", "Viaj_5a10": 118, "lugar": 99, "lat": 19.597373677699998, "long": -99.006627210399998, "dest_y": 19.375757, "dest_x": -99.237133, "distancia": 34445.482698899999, "lugar_dist": 8 }, "geometry": { "type": "Point", "coordinates": [ -99.006627210403607, 19.597373677724114 ] } },
{ "type": "Feature", "properties": { "Distrito": "165", "Descripcio": "Ojo de Agua", "Viaj_5a10": 71, "lugar": 99, "lat": 19.680422526200001, "long": -99.013873593100001, "dest_y": 19.375757, "dest_x": -99.237133, "distancia": 41050.86454960001, "lugar_dist": 4 }, "geometry": { "type": "Point", "coordinates": [ -99.013873593075601, 19.680422526245188 ] } },
{ "type": "Feature", "properties": { "Distrito": "166", "Descripcio": "Base Aérea Santa Lucia-Cuautlalpan", "Viaj_5a10": 26, "lugar": 99, "lat": 19.768567911000002, "long": -98.979127960599996, "dest_y": 19.375757, "dest_x": -99.237133, "distancia": 51201.794171100002, "lugar_dist": 1 }, "geometry": { "type": "Point", "coordinates": [ -98.979127960605894, 19.768567910950988 ] } },
{ "type": "Feature", "properties": { "Distrito": "178", "Descripcio": "Mercado Pirules", "Viaj_5a10": 133, "lugar": 48, "lat": 19.404154374699999, "long": -99.035938973699999, "dest_y": 19.375757, "dest_x": -99.237133, "distancia": 21358.304945600001, "lugar_dist": 33 }, "geometry": { "type": "Point", "coordinates": [ -99.035938973687124, 19.404154374694812 ] } },
{ "type": "Feature", "properties": { "Distrito": "179", "Descripcio": "Ayuntamiento de Nezahualcóyotl", "Viaj_5a10": 101, "lugar": 99, "lat": 19.416297487200001, "long": -99.013976987899994, "dest_y": 19.375757, "dest_x": -99.237133, "distancia": 23856.638949699998, "lugar_dist": 24 }, "geometry": { "type": "Point", "coordinates": [ -99.013976987889876, 19.416297487189418 ] } },
{ "type": "Feature", "properties": { "Distrito": "185", "Descripcio": "San Lorenzo-Xochitenco", "Viaj_5a10": 111, "lugar": 99, "lat": 19.400828392699999, "long": -98.966942905600007, "dest_y": 19.375757, "dest_x": -99.237133, "distancia": 28506.241443, "lugar_dist": 17 }, "geometry": { "type": "Point", "coordinates": [ -98.966942905604753, 19.40082839265235 ] } },
{ "type": "Feature", "properties": { "Distrito": "187", "Descripcio": "Barrio Labradores-Jardines Acuitlapilco", "Viaj_5a10": 116, "lugar": 99, "lat": 19.443165029500001, "long": -98.9465595498, "dest_y": 19.375757, "dest_x": -99.237133, "distancia": 31405.8996706, "lugar_dist": 13 }, "geometry": { "type": "Point", "coordinates": [ -98.946559549797996, 19.443165029474859 ] } },
{ "type": "Feature", "properties": { "Distrito": "193", "Descripcio": "Metro La Paz-Los Reyes", "Viaj_5a10": 182, "lugar": 36, "lat": 19.356582122199999, "long": -98.948779604600006, "dest_y": 19.375757, "dest_x": -99.237133, "distancia": 30356.462356200002, "lugar_dist": 15 }, "geometry": { "type": "Point", "coordinates": [ -98.948779604584317, 19.356582122213368 ] } },
{ "type": "Feature", "properties": { "Distrito": "195", "Descripcio": "Geovillas de Ayotla-Unión Antorchista", "Viaj_5a10": 246, "lugar": 26, "lat": 19.324395910900002, "long": -98.925354672200001, "dest_y": 19.375757, "dest_x": -99.237133, "distancia": 33234.985659799997, "lugar_dist": 12 }, "geometry": { "type": "Point", "coordinates": [ -98.925354672200314, 19.324395910880735 ] } },
{ "type": "Feature", "properties": { "Distrito": "201", "Descripcio": "Xico", "Viaj_5a10": 224, "lugar": 28, "lat": 19.270860686799999, "long": -98.937284261399995, "dest_y": 19.375757, "dest_x": -99.237133, "distancia": 33568.198461, "lugar_dist": 11 }, "geometry": { "type": "Point", "coordinates": [ -98.937284261367893, 19.270860686810799 ] } },
{ "type": "Feature", "properties": { "Distrito": "202", "Descripcio": "San Miguel Jacalones", "Viaj_5a10": 88, "lugar": 99, "lat": 19.281787239500002, "long": -98.897648905599993, "dest_y": 19.375757, "dest_x": -99.237133, "distancia": 37144.9866721, "lugar_dist": 6 }, "geometry": { "type": "Point", "coordinates": [ -98.897648905645553, 19.281787239465338 ] } },
{ "type": "Feature", "properties": { "Distrito": "203", "Descripcio": "Chalco de Díaz Covarrubias", "Viaj_5a10": 124, "lugar": 99, "lat": 19.262670350800001, "long": -98.900287523599999, "dest_y": 19.375757, "dest_x": -99.237133, "distancia": 37532.241640100001, "lugar_dist": 5 }, "geometry": { "type": "Point", "coordinates": [ -98.900287523646739, 19.262670350782031 ] } },
{ "type": "Feature", "properties": { "Distrito": "204", "Descripcio": "San Martín Cuautlalpan", "Viaj_5a10": 41, "lugar": 99, "lat": 19.272421253400001, "long": -98.83252621, "dest_y": 19.375757, "dest_x": -99.237133, "distancia": 44012.991326299998, "lugar_dist": 3 }, "geometry": { "type": "Point", "coordinates": [ -98.832526210031887, 19.272421253428099 ] } },
{ "type": "Feature", "properties": { "Distrito": "206", "Descripcio": "Industrial Chalco-Tenango del Aire", "Viaj_5a10": 308, "lugar": 17, "lat": 19.1393588597, "long": -98.8850677203, "dest_y": 19.375757, "dest_x": -99.237133, "distancia": 45310.477682700002, "lugar_dist": 2 }, "geometry": { "type": "Point", "coordinates": [ -98.885067720279963, 19.139358859672733 ] } }
]
}
